{"type": "FeatureCollection", "features": [ {"type": "Feature", "properties": {"norad_id": 44543, "name": "BEIDOU-3 M23 (C45)", "group": "beidou", "lat": 51.409414107496055, "lon": -54.75864561365355, "alt_km": 21520.168491514334, "timestamp": "2025-12-08T08:59:01.031286+00:00", "meta": {"OBJECT_NAME": "BEIDOU-3 M23 (C45)", "OBJECT_ID": "2019-061B", "EPOCH": "2025-12-04T17:20:06.370944", "MEAN_MOTION": 1.86227466, "ECCENTRICITY": 0.0006129, "INCLINATION": 54.3989, "RA_OF_ASC_NODE": 189.2553, "ARG_OF_PERICENTER": 23.0087, "MEAN_ANOMALY": 154.4182, "EPHEMERIS_TYPE": 0, "CLASSIFICATION_TYPE": "U", "NORAD_CAT_ID": 44543, "ELEMENT_SET_NO": 999, "REV_AT_EPOCH": 4217, "BSTAR": 0, "MEAN_MOTION_DOT": 1e-06, "MEAN_MOTION_DDOT": 0}, "tle": {"line1": "1 44543U 19061B   25338.72229596  .00000100  00000+0  00000+0 0  9999", "line2": "2 44543  54.3989 189.2553 0006129  23.0087 154.4182  1.86227466 42172"}}, "geometry": {"type": "Point", "coordinates": [-54.75864561365355, 51.409414107496055]}}, {"type": "Feature", "properties": {"norad_id": 44709, "name": "BEIDOU-3 IGSO-3 (C40)", "group": "beidou", "lat": 33.818171154729434, "lon": -49.28602116188129, "alt_km": 35951.01225230314, "timestamp": "2025-12-08T08:59:01.031298+00:00", "meta": {"OBJECT_NAME": "BEIDOU-3 IGSO-3 (C40)", "OBJECT_ID": "2019-073A", "EPOCH": "2025-11-20T07:11:22.740000", "MEAN_MOTION": 1.00250097, "ECCENTRICITY": 0.0044538, "INCLINATION": 55.163, "RA_OF_ASC_NODE": 283.159, "ARG_OF_PERICENTER": 191.5856, "MEAN_ANOMALY": 168.2409, "EPHEMERIS_TYPE": 0, "CLASSIFICATION_TYPE": "U", "NORAD_CAT_ID": 44709, "ELEMENT_SET_NO": 999, "REV_AT_EPOCH": 2236, "BSTAR": 0, "MEAN_MOTION_DOT": -2.06e-06, "MEAN_MOTION_DDOT": 0}, "tle": {"line1": "1 44709U 19073A   25324.29956875 -.00000206  00000+0  00000+0 0  9998", "line2": "2 44709  55.1630 283.1590 0044538 191.5856 168.2409  1.00250097 22360"}}, "geometry": {"type": "Point", "coordinates": [-49.28602116188129, 33.818171154729434]}}, {"type": "Feature", "properties": {"norad_id": 44793, "name": "BEIDOU-3 M22 (C44)", "group": "beidou", "lat": -44.46096574244886, "lon": -98.71582708158057, "alt_km": 21531.038899010007, "timestamp": "2025-12-08T08:59:01.031312+00:00", "meta": {"OBJECT_NAME": "BEIDOU-3 M22 (C44)", "OBJECT_ID": "2019-078A", "EPOCH": "2025-12-05T05:48:12.053952", "MEAN_MOTION": 1.86231816, "ECCENTRICITY": 0.00057288, "INCLINATION": 54.1154, "RA_OF_ASC_NODE": 306.6493, "ARG_OF_PERICENTER": 22.8633, "MEAN_ANOMALY": 337.1445, "EPHEMERIS_TYPE": 0, "CLASSIFICATION_TYPE": "U", "NORAD_CAT_ID": 44793, "ELEMENT_SET_NO": 999, "REV_AT_EPOCH": 4103, "BSTAR": 0, "MEAN_MOTION_DOT": -6.9e-07, "MEAN_MOTION_DDOT": 0}, "tle": {"line1": "1 44793U 19078A   25339.24180618 -.00000069  00000+0  00000+0 0  9998", "line2": "2 44793  54.1154 306.6493 0005728  22.8633 337.1445  1.86231816 41037"}}, "geometry": {"type": "Point", "coordinates": [-98.71582708158057, -44.46096574244886]}}, {"type": "Feature", "properties": {"norad_id": 44794, "name": "BEIDOU-3 M21 (C43)", "group": "beidou", "lat": -22.353716936398804, "lon": 143.80934851594515, "alt_km": 21541.921387738887, "timestamp": "2025-12-08T08:59:01.031324+00:00", "meta": {"OBJECT_NAME": "BEIDOU-3 M21 (C43)", "OBJECT_ID": "2019-078B", "EPOCH": "2025-12-05T21:59:25.852416", "MEAN_MOTION": 1.86227538, "ECCENTRICITY": 0.00039607, "INCLINATION": 54.088, "RA_OF_ASC_NODE": 306.5908, "ARG_OF_PERICENTER": 10.7864, "MEAN_ANOMALY": 349.2048, "EPHEMERIS_TYPE": 0, "CLASSIFICATION_TYPE": "U", "NORAD_CAT_ID": 44794, "ELEMENT_SET_NO": 999, "REV_AT_EPOCH": 4105, "BSTAR": 0, "MEAN_MOTION_DOT": -6.9e-07, "MEAN_MOTION_DDOT": 0}, "tle": {"line1": "1 44794U 19078B   25339.91627144 -.00000069  00000+0  00000+0 0  9993", "line2": "2 44794  54.0880 306.5908 0003960  10.7864 349.2048  1.86227538 41052"}}, "geometry": {"type": "Point", "coordinates": [143.80934851594515, -22.353716936398804]}}, {"type": "Feature", "properties": {"norad_id": 44864, "name": "BEIDOU-3 M19 (C41)", "group": "beidou", "lat": 35.238967362987154, "lon": 97.09606855206701, "alt_km": 21547.362020741075, "timestamp": "2025-12-08T08:59:01.031335+00:00", "meta": {"OBJECT_NAME": "BEIDOU-3 M19 (C41)", "OBJECT_ID": "2019-090A", "EPOCH": "2025-12-02T22:27:31.551840", "MEAN_MOTION": 1.86231053, "ECCENTRICITY": 0.00175607, "INCLINATION": 56.3847, "RA_OF_ASC_NODE": 69.2872, "ARG_OF_PERICENTER": 284.9296, "MEAN_ANOMALY": 72.494, "EPHEMERIS_TYPE": 0, "CLASSIFICATION_TYPE": "U", "NORAD_CAT_ID": 44864, "ELEMENT_SET_NO": 999, "REV_AT_EPOCH": 4057, "BSTAR": 0, "MEAN_MOTION_DOT": -4.9e-07, "MEAN_MOTION_DDOT": 0}, "tle": {"line1": "1 44864U 19090A   25336.93578185 -.00000049  00000+0  00000+0 0  9992", "line2": "2 44864  56.3847  69.2872 0017560 284.9296  72.4940  1.86231053 40575"}}, "geometry": {"type": "Point", "coordinates": [97.09606855206701, 35.238967362987154]}}, {"type": "Feature", "properties": {"norad_id": 44865, "name": "BEIDOU-3 M20 (C42)", "group": "beidou", "lat": 37.34343922489393, "lon": -141.2922896688228, "alt_km": 21563.04236639985, "timestamp": "2025-12-08T08:59:01.031347+00:00", "meta": {"OBJECT_NAME": "BEIDOU-3 M20 (C42)", "OBJECT_ID": "2019-090B", "EPOCH": "2025-12-03T10:37:23.867040", "MEAN_MOTION": 1.86231029, "ECCENTRICITY": 0.00147135, "INCLINATION": 56.3867, "RA_OF_ASC_NODE": 69.3045, "ARG_OF_PERICENTER": 297.7194, "MEAN_ANOMALY": 129.1388, "EPHEMERIS_TYPE": 0, "CLASSIFICATION_TYPE": "U", "NORAD_CAT_ID": 44865, "ELEMENT_SET_NO": 999, "REV_AT_EPOCH": 4057, "BSTAR": 0, "MEAN_MOTION_DOT": -5e-07, "MEAN_MOTION_DDOT": 0}, "tle": {"line1": "1 44865U 19090B   25337.44263735 -.00000050  00000+0  00000+0 0  9994", "line2": "2 44865  56.3867  69.3045 0014713 297.7194 129.1388  1.86231029 40576"}}, "geometry": {"type": "Point", "coordinates": [-141.2922896688228, 37.34343922489393]}}, {"type": "Feature", "properties": {"norad_id": 45344, "name": "BEIDOU-3 G2 (C60)", "group": "beidou", "lat": -2.329775082379543, "lon": -67.89195769619268, "alt_km": 35768.41138727751, "timestamp": "2025-12-08T08:59:01.031359+00:00", "meta": {"OBJECT_NAME": "BEIDOU-3 G2 (C60)", "OBJECT_ID": "2020-017A", "EPOCH": "2025-12-07T22:34:35.791392", "MEAN_MOTION": 1.00273183, "ECCENTRICITY": 0.0004353, "INCLINATION": 2.488, "RA_OF_ASC_NODE": 43.8131, "ARG_OF_PERICENTER": 264.926, "MEAN_ANOMALY": 186.8691, "EPHEMERIS_TYPE": 0, "CLASSIFICATION_TYPE": "U", "NORAD_CAT_ID": 45344, "ELEMENT_SET_NO": 999, "REV_AT_EPOCH": 2134, "BSTAR": 0, "MEAN_MOTION_DOT": -1.38e-06, "MEAN_MOTION_DDOT": 0}, "tle": {"line1": "1 45344U 20017A   25341.94069203 -.00000138  00000+0  00000+0 0  9999", "line2": "2 45344   2.4880  43.8131 0004353 264.9260 186.8691  1.00273183 21342"}}, "geometry": {"type": "Point", "coordinates": [-67.89195769619268, -2.329775082379543]}}, {"type": "Feature", "properties": {"norad_id": 45807, "name": "BEIDOU-3 G3 (C61)", "group": "beidou", "lat": -1.9301441476251617, "lon": -37.4227049091744, "alt_km": 35769.1720783325, "timestamp": "2025-12-08T08:59:01.031371+00:00", "meta": {"OBJECT_NAME": "BEIDOU-3 G3 (C61)", "OBJECT_ID": "2020-040A", "EPOCH": "2025-12-07T22:43:12.465984", "MEAN_MOTION": 1.0027613, "ECCENTRICITY": 0.00059824, "INCLINATION": 1.9793, "RA_OF_ASC_NODE": 66.5774, "ARG_OF_PERICENTER": 306.2701, "MEAN_ANOMALY": 155.4123, "EPHEMERIS_TYPE": 0, "CLASSIFICATION_TYPE": "U", "NORAD_CAT_ID": 45807, "ELEMENT_SET_NO": 999, "REV_AT_EPOCH": 2015, "BSTAR": 0, "MEAN_MOTION_DOT": -3.51e-06, "MEAN_MOTION_DDOT": 0}, "tle": {"line1": "1 45807U 20040A   25341.94667206 -.00000351  00000+0  00000+0 0  9993", "line2": "2 45807   1.9793  66.5774 0005982 306.2701 155.4123  1.00276130 20152"}}, "geometry": {"type": "Point", "coordinates": [-37.4227049091744, -1.9301441476251617]}}, {"type": "Feature", "properties": {"norad_id": 56564, "name": "BEIDOU-3 G4 (C62)", "group": "beidou", "lat": 0.7896444667488627, "lon": 12.185647622143119, "alt_km": 35798.772421211776, "timestamp": "2025-12-08T08:59:01.031383+00:00", "meta": {"OBJECT_NAME": "BEIDOU-3 G4 (C62)", "OBJECT_ID": "2023-066A", "EPOCH": "2025-12-07T21:14:44.781792", "MEAN_MOTION": 1.00271075, "ECCENTRICITY": 0.00030905, "INCLINATION": 0.8256, "RA_OF_ASC_NODE": 301.6636, "ARG_OF_PERICENTER": 236.4292, "MEAN_ANOMALY": 17.5623, "EPHEMERIS_TYPE": 0, "CLASSIFICATION_TYPE": "U", "NORAD_CAT_ID": 56564, "ELEMENT_SET_NO": 999, "REV_AT_EPOCH": 947, "BSTAR": 0, "MEAN_MOTION_DOT": -1.08e-06, "MEAN_MOTION_DDOT": 0}, "tle": {"line1": "1 56564U 23066A   25341.88524053 -.00000108  00000+0  00000+0 0  9991", "line2": "2 56564   0.8256 301.6636 0003090 236.4292  17.5623  1.00271075  9471"}}, "geometry": {"type": "Point", "coordinates": [12.185647622143119, 0.7896444667488627]}}, {"type": "Feature", "properties": {"norad_id": 58654, "name": "BEIDOU-3 M28 (C50)", "group": "beidou", "lat": 20.013971133313373, "lon": -125.68183072247557, "alt_km": 21528.12566562784, "timestamp": "2025-12-08T08:59:01.031395+00:00", "meta": {"OBJECT_NAME": "BEIDOU-3 M28 (C50)", "OBJECT_ID": "2023-207A", "EPOCH": "2025-12-06T12:45:22.310208", "MEAN_MOTION": 1.86229594, "ECCENTRICITY": 0.00021908, "INCLINATION": 55.5792, "RA_OF_ASC_NODE": 68.8117, "ARG_OF_PERICENTER": 267.5881, "MEAN_ANOMALY": 92.402, "EPHEMERIS_TYPE": 0, "CLASSIFICATION_TYPE": "U", "NORAD_CAT_ID": 58654, "ELEMENT_SET_NO": 999, "REV_AT_EPOCH": 1325, "BSTAR": 0, "MEAN_MOTION_DOT": -4.7e-07, "MEAN_MOTION_DDOT": 0}, "tle": {"line1": "1 58654U 23207A   25340.53150822 -.00000047  00000+0  00000+0 0  9992", "line2": "2 58654  55.5792  68.8117 0002190 267.5881  92.4020  1.86229594 13257"}}, "geometry": {"type": "Point", "coordinates": [-125.68183072247557, 20.013971133313373]}}]}